IONOSFERA-M 4           
1 64877U 25155B   26183.83653455  .00000054  00000+0  44303-4 0  9995
2 64877  98.6038 145.2653 0001558 111.3195 248.8149 14.21491449 48629
MICROCARB               
1 64899U 25156A   26183.16721104  .00000648  00000+0  10882-3 0  9996
2 64899  98.0094 260.0568 0017037 208.4094 151.6186 14.72881876 50173
CO3D 3                  
1 64900U 25156B   26183.78763620  .00005372  00000+0  25115-3 0  9990
2 64900  97.4333 262.2564 0001830 108.4271 251.7164 15.20194677 51905
CO3D 4                  
1 64901U 25156C   26183.78778373  .00002781  00000+0  13156-3 0  9995
2 64901  97.4337 262.2559 0000742 172.7753 187.3493 15.20195699 51908
CO3D 2                  
1 64902U 25156D   26183.82026284  .00005537  00000+0  25874-3 0  9990
2 64902  97.4332 262.1873 0001461  91.2253 268.9149 15.20196457 51908
CO3D 1                  
1 64903U 25156E   26183.82042034  .00005478  00000+0  25599-3 0  9990
2 64903  97.4331 262.1876 0001337 102.1222 258.0163 15.20200114 51903
PRSC-S1                 
1 65055U 25164A   26183.77689372  .00003488  00000+0  24331-3 0  9996
2 65055  41.1287 200.0030 0005037 105.2165 254.9206 15.06565434 50783
SENTINEL-6B             
1 66514U 25264A   26183.85717080 -.00000046  00000+0  64349-4 0  9997
2 66514  66.0412 102.6328 0007916 268.8819  91.1289 12.80929974 29170
CAS500-3                
1 66655U 25274F   26183.74547112  .00001545  00000+0  17261-3 0  9993
2 66655  97.7442 111.4426 0006878  70.4146 289.7813 14.88359938 32464
CSG-3                   
1 67304U 26001A   26183.45638167  .00000373  00000+0  53465-4 0  9998
2 67304  97.8889   6.8372 0001511  96.0310 264.1075 14.82164507 26724
PRSC-E03                
1 68835U 26092A   26183.49748270  .00003735  00000+0  25340-3 0  9994
2 68835  38.0021 359.3945 0003354 163.3202 196.7670 15.06753757 10267
CAS500-2                
1 69013U 26100AK  26183.68151564  .00007266  00000+0  33252-3 0  9992
2 69013  97.3885  81.2487 0008943 342.7001  17.3929 15.20774819  9163
